NORAD_CAT_ID,OBJECT_NAME,OBJECT_TYPE,EPOCH,MEAN_MOTION,ECCENTRICITY,INCLINATION,RA_OF_ASC_NODE,ARG_OF_PERICENTER,MEAN_ANOMALY,BSTAR,MEAN_MOTION_DOT,MEAN_MOTION_DDOT,TLE_LINE0,TLE_LINE1,TLE_LINE2,SEMIMAJOR_AXIS,PERIOD,APOGEE,PERIGEE,DECAYED
50813.0,STARLINK-3349,PAYLOAD,2024-02-19 00:24:21,15.0885068,0.0001338,53.2176,284.483,104.2743,255.8398,7.3155e-05,8.77e-06,0.0,0 STARLINK-3349,1 50813U 22001L   24050.01691008  .00000877  00000-0  73155-4 0  9995,2 50813  53.2176 284.4830 0001338 104.2743 255.8398 15.08850680118627,6917.848,95.437,540.638,538.787,0.0
50813.0,STARLINK-3349,PAYLOAD,2024-02-19 08:21:17,15.0884504,0.0001439,53.2178,282.9944,79.3682,280.7472,2.201e-05,6.2e-07,0.0,0 STARLINK-3349,1 50813U 22001L   24050.34811356  .00000062  00000-0  22010-4 0  9991,2 50813  53.2178 282.9944 0001439  79.3682 280.7472 15.08845040118673,6917.865,95.437,540.725,538.735,0.0
50813.0,STARLINK-3349,PAYLOAD,2024-02-19 19:28:59,15.08832912,0.0001606,53.2176,280.916,96.4144,263.7031,1.2342e-05,-9.2e-07,0.0,0 STARLINK-3349,1 50813U 22001L   24050.81180419 -.00000092  00000-0  12342-4 0  9993,2 50813  53.2176 280.9160 0001606  96.4144 263.7031 15.08832912118742,6917.902,95.438,540.878,538.656,0.0
50813.0,STARLINK-3349,PAYLOAD,2024-02-19 22:39:46,15.08832087,0.0001458,53.2177,280.3215,89.8365,270.2794,-1.1627e-05,-4.73e-06,0.0,0 STARLINK-3349,1 50813U 22001L   24050.94428424 -.00000473  00000-0 -11627-4 0  9997,2 50813  53.2177 280.3215 0001458  89.8365 270.2794 15.08832087117510,6917.905,95.438,540.778,538.761,0.0
50813.0,STARLINK-3349,PAYLOAD,2024-02-20 08:12:04,15.08839009,0.0001508,53.2182,278.5356,84.94,275.1764,2.7388e-05,1.48e-06,0.0,0 STARLINK-3349,1 50813U 22001L   24051.34172045  .00000148  00000-0  27388-4 0  9995,2 50813  53.2182 278.5356 0001508  84.9400 275.1764 15.08839009117571,6917.883,95.438,540.792,538.705,0.0
50813.0,STARLINK-3349,PAYLOAD,2024-02-20 19:19:46,15.0884659,0.0001559,53.2182,276.4552,93.6477,266.4693,0.00010485,1.381e-05,0.0,0 STARLINK-3349,1 50813U 22001L   24051.80539389  .00001381  00000-0  10485-3 0  9993,2 50813  53.2182 276.4552 0001559  93.6477 266.4693 15.08846590118896,6917.86,95.437,540.804,538.647,0.0
50813.0,STARLINK-3349,PAYLOAD,2024-02-20 22:30:32,15.08848743,0.0001502,53.2176,275.8602,96.5504,263.5659,7.7651e-05,9.48e-06,0.0,0 STARLINK-3349,1 50813U 22001L   24051.93787254  .00000948  00000-0  77651-4 0  9990,2 50813  53.2176 275.8602 0001502  96.5504 263.5659 15.08848743117665,6917.854,95.437,540.758,538.68,0.0
50813.0,STARLINK-3349,PAYLOAD,2024-02-21 08:02:51,15.08847471,0.0001369,53.2166,274.0746,88.8084,271.3065,2.6164e-05,1.29e-06,0.0,0 STARLINK-3349,1 50813U 22001L   24052.33531317  .00000129  00000-0  26164-4 0  9996,2 50813  53.2166 274.0746 0001369  88.8084 271.3065 15.08847471117724,6917.858,95.437,540.67,538.775,0.0
50813.0,STARLINK-3349,PAYLOAD,2024-02-21 20:45:56,15.08833375,0.0001368,53.2161,271.6964,88.0416,272.0733,0.00010739,1.421e-05,0.0,0 STARLINK-3349,1 50813U 22001L   24052.86524172  .00001421  00000-0  10739-3 0  9991,2 50813  53.2161 271.6964 0001368  88.0416 272.0733 15.08833375119050,6917.901,95.438,540.712,538.819,0.0
50813.0,STARLINK-3349,PAYLOAD,2024-02-22 07:53:38,15.08840115,0.000136,53.2161,269.6142,88.2517,271.8631,7.9408e-05,9.76e-06,0.0,0 STARLINK-3349,1 50813U 22001L   24053.32891845  .00000976  00000-0  79408-4 0  9990,2 50813  53.2161 269.6142 0001360  88.2517 271.8631 15.08840115117873,6917.88,95.438,540.686,538.804,0.0
50813.0,STARLINK-3349,PAYLOAD,2024-02-22 20:36:43,15.08844775,0.0001406,53.2156,267.2351,87.7935,272.3218,4.1263e-05,3.69e-06,0.0,0 STARLINK-3349,1 50813U 22001L   24053.85883534  .00000369  00000-0  41263-4 0  9998,2 50813  53.2156 267.2351 0001406  87.7935 272.3218 15.08844775119204,6917.866,95.437,540.703,538.758,0.0
50813.0,STARLINK-3349,PAYLOAD,2024-02-23 07:44:25,15.08845581,0.0001369,53.2144,265.1522,117.4842,242.6289,2.8949e-05,1.73e-06,0.0,0 STARLINK-3349,1 50813U 22001L   24054.32251181  .00000173  00000-0  28949-4 0  9997,2 50813  53.2144 265.1522 0001369 117.4842 242.6289 15.08845581118027,6917.863,95.437,540.675,538.781,0.0
50813.0,STARLINK-3349,PAYLOAD,2024-02-23 20:27:30,15.0884279,0.0001433,53.2161,262.7719,94.8876,265.228,9.9525e-05,1.296e-05,0.0,0 STARLINK-3349,1 50813U 22001L   24054.85243299  .00001296  00000-0  99525-4 0  9991,2 50813  53.2161 262.7719 0001433  94.8876 265.2280 15.08842790118104,6917.872,95.437,540.728,538.746,0.0
50813.0,STARLINK-3349,PAYLOAD,2024-02-23 23:38:16,15.08837112,0.000155,53.2162,262.177,96.807,263.3099,0.00018696,2.689e-05,0.0,0 STARLINK-3349,1 50813U 22001L   24054.98491393  .00002689  00000-0  18696-3 0  9991,2 50813  53.2162 262.1770 0001550  96.8070 263.3099 15.08837112119373,6917.889,95.438,540.826,538.682,0.0
50813.0,STARLINK-3349,PAYLOAD,2024-02-24 20:18:18,15.08835801,0.0001503,53.2162,258.3116,93.2825,266.8339,-5.5734e-06,-3.77e-06,0.0,0 STARLINK-3349,1 50813U 22001L   24055.84604169 -.00000377  00000-0 -55734-5 0  9994,2 50813  53.2162 258.3116 0001503  93.2825 266.8339 15.08835801119504,6917.893,95.438,540.798,538.718,0.0
50813.0,STARLINK-3349,PAYLOAD,2024-02-25 13:47:32,15.08841426,0.0001341,53.2168,255.0409,92.1913,267.9232,5.4493e-05,5.79e-06,0.0,0 STARLINK-3349,1 50813U 22001L   24056.57467687  .00000579  00000-0  54493-4 0  9999,2 50813  53.2168 255.0409 0001341  92.1913 267.9232 15.08841426118362,6917.876,95.437,540.669,538.813,0.0
50813.0,STARLINK-3349,PAYLOAD,2024-02-25 20:09:04,15.08847905,0.000133,53.2163,253.8526,93.2128,266.9017,0.00011489,1.541e-05,0.0,0 STARLINK-3349,1 50813U 22001L   24056.83963159  .00001541  00000-0  11489-3 0  9990,2 50813  53.2163 253.8526 0001330  93.2128 266.9017 15.08847905119652,6917.856,95.437,540.641,538.801,0.0
50813.0,STARLINK-3349,PAYLOAD,2024-02-26 12:02:56,15.08832361,7.64e-05,53.2163,250.8831,103.3577,256.75,0.00013909,1.926e-05,0.0,0 STARLINK-3349,1 50813U 22001L   24057.50204084  .00001926  00000-0  13909-3 0  9996,2 50813  53.2163 250.8831 0000764 103.3577 256.7500 15.08832361119754,6917.904,95.438,540.297,539.24,0.0
50813.0,STARLINK-3349,PAYLOAD,2024-02-26 13:38:19,15.08834496,9.71e-05,53.2153,250.5809,85.2612,274.8491,5.5072e-05,5.89e-06,0.0,0 STARLINK-3349,1 50813U 22001L   24057.56828438  .00000589  00000-0  55072-4 0  9999,2 50813  53.2153 250.5809 0000971  85.2612 274.8491 15.08834496118517,6917.897,95.438,540.434,539.09,0.0
50813.0,STARLINK-3349,PAYLOAD,2024-02-26 21:35:15,15.08837723,9.98e-05,53.2141,249.0942,87.2506,272.86,7.0159e-05,8.29e-06,0.0,0 STARLINK-3349,1 50813U 22001L   24057.89948302  .00000829  00000-0  70159-4 0  9998,2 50813  53.2141 249.0942 0000998  87.2506 272.8600 15.08837723118569,6917.887,95.438,540.443,539.062,0.0
50813.0,STARLINK-3349,PAYLOAD,2024-02-27 11:53:43,15.08836388,9.78e-05,53.215,246.4191,94.4936,265.6168,7.1155e-05,8.45e-06,0.0,0 STARLINK-3349,1 50813U 22001L   24058.49564466  .00000845  00000-0  71155-4 0  9995,2 50813  53.2150 246.4191 0000978  94.4936 265.6168 15.08836388118656,6917.891,95.438,540.433,539.08,0.0
50813.0,STARLINK-3349,PAYLOAD,2024-02-27 19:50:39,15.08841385,0.0001171,53.2156,244.9332,96.9001,263.2124,2.4402e-05,1.01e-06,0.0,0 STARLINK-3349,1 50813U 22001L   24058.82684310  .00000101  00000-0  24402-4 0  9991,2 50813  53.2156 244.9332 0001171  96.9001 263.2124 15.08841385119951,6917.876,95.437,540.551,538.931,0.0
50813.0,STARLINK-3349,PAYLOAD,2024-02-27 21:26:02,15.08844402,0.0001282,53.2164,244.6334,96.1995,263.9143,5.1861e-05,5.38e-06,0.0,0 STARLINK-3349,1 50813U 22001L   24058.89308058  .00000538  00000-0  51861-4 0  9993,2 50813  53.2164 244.6334 0001282  96.1995 263.9143 15.08844402118710,6917.867,95.437,540.619,538.845,0.0
50813.0,STARLINK-3349,PAYLOAD,2024-02-28 05:22:57,15.08845605,0.0001208,53.216,243.1472,89.2505,270.8626,4.1845e-05,3.78e-06,0.0,0 STARLINK-3349,1 50813U 22001L   24059.22427934  .00000378  00000-0  41845-4 0  9999,2 50813  53.2160 243.1472 0001208  89.2505 270.8626 15.08845605118765,6917.863,95.437,540.564,538.893,0.0
50813.0,STARLINK-3349,PAYLOAD,2024-02-28 21:16:48,15.08846901,0.0001441,53.2158,240.1714,106.9227,253.1923,9.8865e-05,1.286e-05,0.0,0 STARLINK-3349,1 50813U 22001L   24059.88667748  .00001286  00000-0  98865-4 0  9993,2 50813  53.2158 240.1714 0001441 106.9227 253.1923 15.08846901118860,6917.859,95.437,540.721,538.727,0.0
50813.0,STARLINK-3349,PAYLOAD,2024-02-29 11:35:17,15.08839042,0.0001241,53.2153,237.4965,88.7134,271.4,6.9593e-05,8.2e-06,0.0,0 STARLINK-3349,1 50813U 22001L   24060.48284440  .00000820  00000-0  69593-4 0  9994,2 50813  53.2153 237.4965 0001241  88.7134 271.4000 15.08839042120202,6917.883,95.438,540.607,538.89,0.0
50813.0,STARLINK-3349,PAYLOAD,2024-02-29 21:07:36,15.08845798,0.0001218,53.2161,235.7124,90.1654,269.9478,8.3596e-05,1.043e-05,0.0,0 STARLINK-3349,1 50813U 22001L   24060.88027920  .00001043  00000-0  83596-4 0  9993,2 50813  53.2161 235.7124 0001218  90.1654 269.9478 15.08845798119010,6917.863,95.437,540.57,538.885,0.0
50813.0,STARLINK-3349,PAYLOAD,2024-03-01 00:18:22,15.08848255,0.0001182,53.2158,235.1169,91.2867,268.8261,7.7716e-05,9.49e-06,0.0,0 STARLINK-3349,1 50813U 22001L   24061.01275707  .00000949  00000-0  77716-4 0  9998,2 50813  53.2158 235.1169 0001182  91.2867 268.8261 15.08848255120287,6917.855,95.437,540.538,538.902,0.0
50813.0,STARLINK-3349,PAYLOAD,2024-03-01 11:26:05,15.08834186,0.0001053,53.2159,233.0351,94.3913,265.72,-9.7538e-06,-4.43e-06,0.0,0 STARLINK-3349,1 50813U 22001L   24061.47644897 -.00000443  00000-0 -97538-5 0  9994,2 50813  53.2159 233.0351 0001053  94.3913 265.7200 15.08834186120356,6917.898,95.438,540.492,539.035,0.0
50813.0,STARLINK-3349,PAYLOAD,2024-03-01 14:36:51,15.08837264,0.0001122,53.2157,232.442,86.9382,273.1738,2.0433e-05,3.7e-07,0.0,0 STARLINK-3349,1 50813U 22001L   24061.60892680  .00000037  00000-0  20433-4 0  9990,2 50813  53.2157 232.4420 0001122  86.9382 273.1738 15.08837264119120,6917.889,95.438,540.53,538.978,0.0
